0 INTELSAT 502
1 12089U 80098A   13281.50438582 -.00000242  00000-0  10000-3 0  8852
2 12089 014.9888 008.5430 0014626 177.5846 182.4319 00.98891164 87893
0 INTELSAT 502
1 12089U 80098A   13283.52671729  .00000000  00000-0  10000-3 0  8871
2 12089 014.9905 008.5226 0014954 184.8873 175.1089 00.98886937 87919
0 INTELSAT 502
1 12089U 80098A   13286.56023297 -.00000298  00000-0  10000-3 0  8879
2 12089 014.9925 008.4916 0015419 182.0820 177.9099 00.98890713 87946
0 INTELSAT 502
1 12089U 80098A   13293.63855411 -.00000153  00000-0  10000-3 0  8887
2 12089 014.9963 008.4164 0015548 183.1810 176.8052 00.98887710 88016
